sat00815
1 00815U 64031C   20046.88566635 -.00000005  00000-0  20273-4 0  9991
2 00815  99.8602  37.5768 0011498 335.3623  24.7003 14.27319869890906
